IRIDIUM 39              
1 25042U 97069D   25329.48007422  .00000910  00000+0  23189-3 0  9997
2 25042  86.3905 142.0342 0019457 123.9922 236.3134 14.49464801472327
IRIDIUM 38              
1 25043U 97069E   25329.09813762  .00000518  00000+0  16380-3 0  9996
2 25043  86.3974 165.5257 0000773  20.2505 339.8724 14.38289294469088
IRIDIUM 42              
1 25077U 97077A   25329.09346994  .00000474  00000+0  15504-3 0  9998
2 25077  86.3984 171.8914 0001562  67.9276 292.2087 14.36509931464299
IRIDIUM 44              
1 25078U 97077B   25329.44701412  .00000493  00000+0  14898-3 0  9994
2 25078  86.3962 153.2537 0001735 146.5006 213.6303 14.40410338466914
IRIDIUM 45              
1 25104U 97082A   25329.48058255  .00029200  00000+0  84770-3 0  9997
2 25104  86.3543 329.1759 0104244  84.6175 276.6955 15.30007355476630
IRIDIUM 24              
1 25105U 97082B   25329.48852807  .00000572  00000+0  16724-3 0  9998
2 25105  86.3926  11.8719 0009171 263.0806  96.9351 14.42304029466467
IRIDIUM 51              
1 25262U 98018A   25329.45349422  .00095645  00000+0  11713-2 0  9990
2 25262  86.3746 335.0937 0055911 347.9035  12.0881 15.58119150471957
IRIDIUM 57              
1 25273U 98019B   25329.35212800  .00000501  00000+0  16572-3 0  9997
2 25273  86.3952  77.6814 0001980  94.4213 265.7210 14.36031307447914
